0 IRIDIUM 166
1 43570U 18061B   24017.63025765  .00000267  00000-0  88352-4 0  9998
2 43570  86.3944  65.1601 0002027  88.3591 271.7837 14.34215073287045
0 IRIDIUM 158
1 43571U 18061C   24017.66830847  .00000466  00000-0  15919-3 0  9996
2 43571  86.3939  65.1531 0001901  96.7041 263.4371 14.34221859287012
0 IRIDIUM 165
1 43572U 18061D   24017.62391550  .00000163  00000-0  51160-4 0  9999
2 43572  86.3941  65.2015 0001957 100.6115 259.5301 14.34218397287036
0 IRIDIUM 155
1 43573U 18061E   24017.93470118  .00000449  00000-0  15337-3 0  9994
2 43573  86.3936  64.9838 0002254  87.9953 272.1501 14.34219999287041
0 IRIDIUM 154
1 43574U 18061F   24017.63660067  .00000083  00000-0  22706-4 0  9999
2 43574  86.3942  65.1987 0002392  98.0740 262.0727 14.34218207287057
0 IRIDIUM 163
1 43575U 18061G   24017.68733717  .00000425  00000-0  14485-3 0  9992
2 43575  86.3939  65.1205 0002234  93.3075 266.8376 14.34217829287030
0 IRIDIUM 156
1 43576U 18061H   24017.66196818  .00000473  00000-0  16188-3 0  9991
2 43576  86.3938  65.1374 0001896  92.7994 267.3419 14.34221004287026
0 IRIDIUM 164
1 43577U 18061J   24017.64294023  .00000297  00000-0  98874-4 0  9994
2 43577  86.3939  65.1719 0002005  99.3056 260.8367 14.34220321287061
